CCSDS_OMM_VERS = 2.0
CREATION_DATE  = 
ORIGINATOR     = 

OBJECT_NAME    = COSMOS 2242
OBJECT_ID      = 1993-024A
CENTER_NAME    = EARTH
REF_FRAME      = TEME
TIME_SYSTEM    = UTC
MEAN_ELEMENT_THEORY = SGP/SGP4

EPOCH          = 2026-03-18T11:04:42.818880
MEAN_MOTION    = 14.96585605
ECCENTRICITY   = .00149119
INCLINATION    = 82.5152
RA_OF_ASC_NODE = 258.3236
ARG_OF_PERICENTER = 276.7471
MEAN_ANOMALY   = 83.2054

EPHEMERIS_TYPE = 0
CLASSIFICATION_TYPE = U
NORAD_CAT_ID   = 22626
ELEMENT_SET_NO = 999
REV_AT_EPOCH   = 78170
BSTAR          = .16985009E-3
MEAN_MOTION_DOT = .1963E-4
MEAN_MOTION_DDOT = 0

CCSDS_OMM_VERS = 2.0
CREATION_DATE  = 
ORIGINATOR     = 

OBJECT_NAME    = SL-16 R/B
OBJECT_ID      = 1993-059B
CENTER_NAME    = EARTH
REF_FRAME      = TEME
TIME_SYSTEM    = UTC
MEAN_ELEMENT_THEORY = SGP/SGP4

EPOCH          = 2026-03-18T12:16:16.723488
MEAN_MOTION    = 14.17233072
ECCENTRICITY   = .00180177
INCLINATION    = 70.9931
RA_OF_ASC_NODE = 352.5247
ARG_OF_PERICENTER = 203.6618
MEAN_ANOMALY   = 156.3679

EPHEMERIS_TYPE = 0
CLASSIFICATION_TYPE = U
NORAD_CAT_ID   = 22803
ELEMENT_SET_NO = 999
REV_AT_EPOCH   = 68078
BSTAR          = .14353854E-3
MEAN_MOTION_DOT = .242E-5
MEAN_MOTION_DDOT = 0

CCSDS_OMM_VERS = 2.0
CREATION_DATE  = 
ORIGINATOR     = 

OBJECT_NAME    = ARIANE 40 R/B
OBJECT_ID      = 1993-061H
CENTER_NAME    = EARTH
REF_FRAME      = TEME
TIME_SYSTEM    = UTC
MEAN_ELEMENT_THEORY = SGP/SGP4

EPOCH          = 2026-03-18T10:15:25.085088
MEAN_MOTION    = 14.32865565
ECCENTRICITY   = .00096036
INCLINATION    = 98.4900
RA_OF_ASC_NODE = 146.1419
ARG_OF_PERICENTER = 256.1559
MEAN_ANOMALY   = 103.8557

EPHEMERIS_TYPE = 0
CLASSIFICATION_TYPE = U
NORAD_CAT_ID   = 22830
ELEMENT_SET_NO = 999
REV_AT_EPOCH   = 69535
BSTAR          = .90252677E-4
MEAN_MOTION_DOT = .203E-5
MEAN_MOTION_DDOT = 0

CCSDS_OMM_VERS = 2.0
CREATION_DATE  = 
ORIGINATOR     = 

OBJECT_NAME    = COSMOS 2278
OBJECT_ID      = 1994-023A
CENTER_NAME    = EARTH
REF_FRAME      = TEME
TIME_SYSTEM    = UTC
MEAN_ELEMENT_THEORY = SGP/SGP4

EPOCH          = 2026-03-18T13:54:37.779552
MEAN_MOTION    = 14.14378986
ECCENTRICITY   = .00086589
INCLINATION    = 71.0543
RA_OF_ASC_NODE = 156.5005
ARG_OF_PERICENTER = 357.7867
MEAN_ANOMALY   = 2.3216

EPHEMERIS_TYPE = 0
CLASSIFICATION_TYPE = U
NORAD_CAT_ID   = 23087
ELEMENT_SET_NO = 999
REV_AT_EPOCH   = 64606
BSTAR          = -.5558744E-4
MEAN_MOTION_DOT = -.154E-5
MEAN_MOTION_DDOT = 0

CCSDS_OMM_VERS = 2.0
CREATION_DATE  = 
ORIGINATOR     = 

OBJECT_NAME    = SL-16 R/B
OBJECT_ID      = 1994-023B
CENTER_NAME    = EARTH
REF_FRAME      = TEME
TIME_SYSTEM    = UTC
MEAN_ELEMENT_THEORY = SGP/SGP4

EPOCH          = 2026-03-18T14:55:48.703872
MEAN_MOTION    = 14.15010041
ECCENTRICITY   = .0005534
INCLINATION    = 70.9992
RA_OF_ASC_NODE = 52.1263
ARG_OF_PERICENTER = 276.9055
MEAN_ANOMALY   = 83.1438

EPHEMERIS_TYPE = 0
CLASSIFICATION_TYPE = U
NORAD_CAT_ID   = 23088
ELEMENT_SET_NO = 999
REV_AT_EPOCH   = 64735
BSTAR          = .10774761E-4
MEAN_MOTION_DOT = -.27E-6
MEAN_MOTION_DDOT = 0

CCSDS_OMM_VERS = 2.0
CREATION_DATE  = 
ORIGINATOR     = 

OBJECT_NAME    = SL-16 R/B
OBJECT_ID      = 1994-074B
CENTER_NAME    = EARTH
REF_FRAME      = TEME
TIME_SYSTEM    = UTC
MEAN_ELEMENT_THEORY = SGP/SGP4

EPOCH          = 2026-03-18T12:53:36.525984
MEAN_MOTION    = 14.79418188
ECCENTRICITY   = .00064725
INCLINATION    = 97.7097
RA_OF_ASC_NODE = 107.9964
ARG_OF_PERICENTER = 179.7331
MEAN_ANOMALY   = 341.5200

EPHEMERIS_TYPE = 0
CLASSIFICATION_TYPE = U
NORAD_CAT_ID   = 23343
ELEMENT_SET_NO = 999
REV_AT_EPOCH   = 68855
BSTAR          = .6470796E-4
MEAN_MOTION_DOT = .434E-5
MEAN_MOTION_DDOT = 0

CCSDS_OMM_VERS = 2.0
CREATION_DATE  = 
ORIGINATOR     = 

OBJECT_NAME    = SL-16 R/B
OBJECT_ID      = 1994-077B
CENTER_NAME    = EARTH
REF_FRAME      = TEME
TIME_SYSTEM    = UTC
MEAN_ELEMENT_THEORY = SGP/SGP4

EPOCH          = 2026-03-18T11:00:49.757472
MEAN_MOTION    = 14.15564962
ECCENTRICITY   = .00025816
INCLINATION    = 70.9850
RA_OF_ASC_NODE = 334.0419
ARG_OF_PERICENTER = 201.5319
MEAN_ANOMALY   = 158.5696

EPHEMERIS_TYPE = 0
CLASSIFICATION_TYPE = U
NORAD_CAT_ID   = 23405
ELEMENT_SET_NO = 999
REV_AT_EPOCH   = 61747
BSTAR          = .18631641E-3
MEAN_MOTION_DOT = .317E-5
MEAN_MOTION_DDOT = 0

CCSDS_OMM_VERS = 2.0
CREATION_DATE  = 
ORIGINATOR     = 

OBJECT_NAME    = ARIANE 40+ R/B
OBJECT_ID      = 1995-021B
CENTER_NAME    = EARTH
REF_FRAME      = TEME
TIME_SYSTEM    = UTC
MEAN_ELEMENT_THEORY = SGP/SGP4

EPOCH          = 2026-03-18T15:51:13.428576
MEAN_MOTION    = 14.39778808
ECCENTRICITY   = .00079188
INCLINATION    = 98.4480
RA_OF_ASC_NODE = 149.0210
ARG_OF_PERICENTER = 113.0525
MEAN_ANOMALY   = 40.4754

EPHEMERIS_TYPE = 0
CLASSIFICATION_TYPE = U
NORAD_CAT_ID   = 23561
ELEMENT_SET_NO = 999
REV_AT_EPOCH   = 62053
BSTAR          = .96712952E-4
MEAN_MOTION_DOT = .26E-5
MEAN_MOTION_DDOT = 0

CCSDS_OMM_VERS = 2.0
CREATION_DATE  = 
ORIGINATOR     = 

OBJECT_NAME    = SL-16 R/B
OBJECT_ID      = 1995-058B
CENTER_NAME    = EARTH
REF_FRAME      = TEME
TIME_SYSTEM    = UTC
MEAN_ELEMENT_THEORY = SGP/SGP4

EPOCH          = 2026-03-18T11:11:29.683392
MEAN_MOTION    = 14.15500409
ECCENTRICITY   = .00103825
INCLINATION    = 71.0222
RA_OF_ASC_NODE = 161.8300
ARG_OF_PERICENTER = 109.7791
MEAN_ANOMALY   = 250.4453

EPHEMERIS_TYPE = 0
CLASSIFICATION_TYPE = U
NORAD_CAT_ID   = 23705
ELEMENT_SET_NO = 999
REV_AT_EPOCH   = 56909
BSTAR          = .74596987E-4
MEAN_MOTION_DOT = .98E-6
MEAN_MOTION_DDOT = 0

CCSDS_OMM_VERS = 2.0
CREATION_DATE  = 
ORIGINATOR     = 

OBJECT_NAME    = SL-16 R/B
OBJECT_ID      = 1996-051B
CENTER_NAME    = EARTH
REF_FRAME      = TEME
TIME_SYSTEM    = UTC
MEAN_ELEMENT_THEORY = SGP/SGP4

EPOCH          = 2026-03-18T10:50:59.572032
MEAN_MOTION    = 14.12417967
ECCENTRICITY   = .00143365
INCLINATION    = 70.7599
RA_OF_ASC_NODE = 156.6936
ARG_OF_PERICENTER = 134.3583
MEAN_ANOMALY   = 225.8714

EPHEMERIS_TYPE = 0
CLASSIFICATION_TYPE = U
NORAD_CAT_ID   = 24298
ELEMENT_SET_NO = 999
REV_AT_EPOCH   = 52288
BSTAR          = .75165562E-4
MEAN_MOTION_DOT = .9E-6
MEAN_MOTION_DDOT = 0

CCSDS_OMM_VERS = 2.0
CREATION_DATE  = 
ORIGINATOR     = 

OBJECT_NAME    = ORBVIEW 2 (SEASTAR)
OBJECT_ID      = 1997-037A
CENTER_NAME    = EARTH
REF_FRAME      = TEME
TIME_SYSTEM    = UTC
MEAN_ELEMENT_THEORY = SGP/SGP4

EPOCH          = 2026-03-18T09:49:35.166720
MEAN_MOTION    = 14.35501143
ECCENTRICITY   = .00028406
INCLINATION    = 98.8582
RA_OF_ASC_NODE = 241.9528
ARG_OF_PERICENTER = 53.7195
MEAN_ANOMALY   = 306.4252

EPHEMERIS_TYPE = 0
CLASSIFICATION_TYPE = U
NORAD_CAT_ID   = 24883
ELEMENT_SET_NO = 999
REV_AT_EPOCH   = 50972
BSTAR          = .1018588E-3
MEAN_MOTION_DOT = .246E-5
MEAN_MOTION_DDOT = 0

CCSDS_OMM_VERS = 2.0
CREATION_DATE  = 
ORIGINATOR     = 

OBJECT_NAME    = SL-16 R/B
OBJECT_ID      = 1998-043G
CENTER_NAME    = EARTH
REF_FRAME      = TEME
TIME_SYSTEM    = UTC
MEAN_ELEMENT_THEORY = SGP/SGP4

EPOCH          = 2026-03-18T10:21:51.350976
MEAN_MOTION    = 14.26051804
ECCENTRICITY   = .000976
INCLINATION    = 98.8269
RA_OF_ASC_NODE = 30.8579
ARG_OF_PERICENTER = 355.6941
MEAN_ANOMALY   = 4.4153

EPHEMERIS_TYPE = 0
CLASSIFICATION_TYPE = U
NORAD_CAT_ID   = 25400
ELEMENT_SET_NO = 999
REV_AT_EPOCH   = 44023
BSTAR          = .41473957E-4
MEAN_MOTION_DOT = .54E-6
MEAN_MOTION_DDOT = 0

